Category,Name,Address,Latitude,Longitude
Private hospital,AANSH IVF Hospitals Pvt Ltd,No13 6th Cross 100 feet Road Srinivagilu koramangala Bangalore 560047,12.938334,77.631089
Private hospital,ABHAYA EYE HOspital,Vasanthappa Building National Park Road Banneraghatta Bangalore 560083,12.800285,77.577047
Private hospital,ABHAYA HOSPITAL,Opp 9th Cross Bus Stop Hosur Road Wilson Garden Bengaluru,12.946389,77.594798
Private hospital,ACE Suhas Hospital,CA 2 circle Jigani Industrial Area Anekal Bangalore,12.780105,77.642831
Private hospital,ANUPAMA HOSPITAL,72 3 BEL LAYOUT 2nD PHASE BYADARAHALLI BANGALORE 560091,12.983186,77.478764
Private hospital,APOLLO HOSPITALS ENTERPRISE LIMITED,14th Cross Road near Madhavan Park Circle Jayanagar East Jayanagar Bengaluru Karnataka 560011,12.936434,77.584328
Private hospital,ASTRA SUPER SPECIALITY HOSPITAL,ASANTHAPURA MAIN ROAD KONANAKUNTE CROSS BANGALORE 560062,12.890692,77.563446
Private hospital,AYESHA SPECIALITY HOSPITAL,No 19 Old No 1355 32nd E Cross Jayanagar 4th T Block Bangalore 560041,12.926842,77.596253
Private hospital,Aashirvad Hospital,73 NPR Complex SLN Temple Road Beside Sri Lakshmi Narayana Temple Munnekolala marathhalli,12.956924,77.701127
Private hospital,Aastha OrthoDerma Centre,No 4 2 2nd Cross Kamakya Layout Banashankari 3rd Stage Bengaluru 560085,12.923293,77.553883
Private hospital,Aaxis Hospital,BBMP Sl No 786 property No 29 1 and 30 Belathur Village Bidarahalli Hobli Kadugodi Bengaluru,13.006334,77.757031
Private hospital,Abhay Vasishtha Hospital,139 561A2 Mandanayakanahalli madavara post dasanpura Hobli Tumkur Road Bangalore 562162,13.060973,77.461838
Private hospital,Abhinav Hospital,Near Metro Station Magadi Main Road Bangalore 560023,12.97572,77.553788
Private hospital,Adarsh Multi Speciality Hospital,No1943 1st A Main 6th Cross Near Andhra Bank Kengeri Satellite town Bangalore 560060,12.920841,77.484753
Private hospital,Agadi Hospital,Siddaiah Rd Vinayaka Nagar Shamana Garden Wilson Garden Bengaluru Karnataka 560027,12.949272,77.597721
Private hospital,Akash Hospital,Akash Hospital Near Kempegowda International Airport Devanahalli Bangalore Rural 562110,13.242714,77.706493
Private hospital,Akshaya Eye Hospital A Unit of Right Axis Eye Hospital,Akshara Eye Hospital S V Arcade Devarachikkanahalli Road Bilekahalli Bangalore 560076,12.899059,77.605538
Private hospital,Akshaya Nursing Home,No 33 34 Balaji Avenue 2nd Stage Attur Main Road Yelahanka Bangalore 560106,13.104743,77.566335
Private hospital,Ananya Hospital Pvt Ltd Rajajinagar,19th Main Rd 1st Block Rajajinagar Bengaluru Karnataka 560010,12.999758,77.550509
Private hospital,Anjani Hospital,301 303 9th Main Kalyan Nagar 1st Phase HRBR Layout Bangalore 560043,13.018818,77.647179
Private hospital,Anugraha Vittala Hospital,No 9 Patalamma Temple Street Basavanagudi Bengaluru 560004,12.938921,77.578535
Private hospital,Apollo Bangalore Cradle ltd,58 5th cross 18th main 6th block Koramangala Bangalore 560095,12.936798,77.620551
Private hospital,Apollo Hospitals Bannerghatta A Unit of Imperial Hospital,Bannerghatta Bangalore,12.896284,77.598422
Private hospital,Apollo Specialty Hospital Pvt Ltd,101 209 210 ITPL Main Road Kundalahalli Brookefield Bengaluru 560037,12.966677,77.717245
Private hospital,Apoorva Hospitals And Diagnostic Centre,548 1 CMH Road Indiranagar Bangalore 560038,12.978492,77.638033
Private hospital,Apurva Mother And Child Hospital,1002 D BB Road Yelahanka Old Town Bangalore 560064,13.101331,77.598585
Private hospital,Artyem Hospital,No1221 Kempegowda Double Road BEML 5th stage Rajarajeshwarinagar Bangalore 560098,12.914775,77.518587
Private hospital,Arunodaya Hospitals,18 23 4th and 5th Cross Mallasandra Main Road Bagalagunte Hesaraghatta Road Bangalore 560057,13.057013,77.50853
Private hospital,Asian Hospital,No 27 A Cross Opp Vani Vilas Hospital K R ROad Near City market,12.961448,77.574009
Private hospital,Aster CMI Hospital,Aster Cmi Hospital 43 2 Nh 7 Sahakarnagar Bengaluru 560092,13.054606,77.591932
Private hospital,Aster RV Hospital,JP Nagar Bengaluru,12.910839,77.585186
Private hospital,Aswad hospital,18 11 Roopenaagrahara Hosur Main Road Bangalore 560068,12.915064,77.624379
Private hospital,Athreya Hospital,No 6 2B Opposite Suryanagar Phase I Chandrapura Anekal Main Road Bangalore,12.794527,77.706786
Private hospital,Atreum Hospitals Pvt Ltd,N 916D 80 feet Road Ideal homes township Rajarajeshwari Nagar Bangalore 560098,12.932503,77.515626
Private hospital,Aveksha Hospital,122 Varadarajaswamy Layout MS Palya Singapura Bengaluru,13.081756,77.540929
Private hospital,Ayaansh Hospital,No 352 CMH Road Indiranagar Bangalore 560038,12.978052,77.635702
Private hospital,B N Speciality Hospital,No 02 Kasavanahalli Road Kaikondrahalli Sarjapur Main Road Bangalore 560035,12.912488,77.676557
Private hospital,BANGALORE BAPTIST HOSPITAL,BELLARY ROAD HEBBAL BANGALORE,13.035841,77.58957
Private hospital,BGS Global Institute of Medical Science and Hospital,No 67 BGS health and education city uttarahalli main road kengeri Bangalore,12.90008,77.497173
Private hospital,BMS Hospital,Bull Temple Road Basavanagudi Bangalore 560004,12.941364,77.567597
Private hospital,BSA Nursing Home,3rd Main Bismillanagar Bannerghatta Road Cross Bangalore 560029,12.946182,77.590755
Private hospital,Banashankari Hospital,Veerabadra swamy layout 1st cross opp veerabadra swamy temple Doddanagamangala Electronic city,12.947887,77.558226
Private hospital,Bangalore Cancer Centre Private Limited,118 1 2 Mookambika Temple Road Machohalli Forest Gate Magadi Main Road Bangalore 560091,12.990588,77.458225
Private hospital,Bangalore Hospice Trust,Old Airport Vartur Main Road Kundalahalli Gate Marathalli Bengaluru 560037,12.957651,77.713394
Private hospital,Bangalore Orthopaedic And Surgical Hospital,426 4th Cross 2nd Block Kalyan Nagar Bengaluru 560043,13.022086,77.63876
Private hospital,Best Hospital,NH 07 Hosur Main Road Beside KMS Kalyana Mantapa Anekal Taluk Bengaluru 562106,12.801643,77.706741
Private hospital,Bhagavathi Multispeciality Hospital,No L 168 6th Sector HSR Layout Bangalore 560102,12.916073,77.630814
Private hospital,Bhagwan Mahaveer Jain Hospital,Bhagwan Mahaveer Jain Hospital Millers Road Vasanthnaga Bangalore 560052,12.99155,77.59528
Private hospital,Bhagwan Mahaveer Jain Hospital Girinagar,6th Cross 3rd Main Avalahalli Extension Girinagar,12.99155,77.59528
Private hospital,Bharth Poly Clinic Nursing Home,No 59 13A 2nd F Cross 6th Main TATa Silk Farm Bengaluru 560004,12.933934,77.572738
Private hospital,Bloosom Fertility Center And Hospital,Sri Rajeshwari Towers 1st floor No 353 354A 8th Main Basaveshwaranagar Bangalore 560079,12.99179,77.537648
Govt. medical college,Bowring And Lady Curzon Hospitals,"Lady Curzon Rd, Shivaji Nagar, Bengaluru, Karnataka 560001",12.982188,77.604057
Private hospital,CHRIS SUPER SPECIALITY HOSPITAL,At Chris Super Speciality Hospital and Research Centre First Floor Hennur Junction Kalyan Nagar,13.028416,77.632521
Private hospital,Chaitanya Hospital,117 P and T Colony RT Nagar Bangalore 560032,13.024095,77.594208
Private hospital,Chaya Super Specialty Hospital,6 5th B Channasandr Main Road Kasturinagar Bengaluru 560043,13.01037,77.658259
Private hospital,Chinmaya Mission Hospital,CMH Road Indira Nagar Bangalore 560038,12.977958,77.646191
Private hospital,Chiraayu hospital Bangalore,NO 1 PEMMEGOUDA ROAD JC NAGAR BENGALURU 560006,13.009257,77.594904
Private hospital,Chirayu Hospital,No 6 8 Behind Anjaneya Temple Thanisandra Main Road Dr Shivaramakaranth Nagar post Bangalore,13.055954,77.632812
Private hospital,City Hospital,20th Main West of Chord Road 2nd Block Rajajinagar Bengaluru 560010,12.995629,77.551029
Private hospital,Columbia Asia Hospital,Survey No 42 2 Ward No 150 Ambalipura Sarjapura Road Bangalore 560102,12.919869,77.665239
Private hospital,Columbia Asia Hospital Hebbal,KIRLOSKAR BUSINESS PARK BELLARY ROAD HEBBAL BENGALURU,13.050953,77.593821
Private hospital,Columbia Asia Referral Hospital Yeshwanthpur,26 4 Brigade gateway Beside metro Malleswaram west Bangalore 560055,13.014183,77.555813
Private hospital,Columbia Asia hospital White Field,Whitefield Main Rd Varthur Kodi Ramagondanahalli Bengaluru Karnataka 560066,12.958246,77.745384
Private hospital,Comfort Multi Speciality Hospital,Kaggadasapura Main Road C V Raman Nagar Kaggadasapura Bengaluru Karnataka 560093,12.981646,77.680061
Private hospital,Cura Hospital,DODDAKALLASANDRA INDUSTRIAL AREA UTTARAHALLI HOBLI,12.88841,77.561182
Private hospital,Deeksha Hospital,387 47 Next to post office B B Road Nehrunagar Yelahanka old town Bangalore 560064,13.098204,77.596915
Private hospital,Deepashri Hospitals,86 2nd Main 16th D Cross Malagala Near inner Ring Road under Pass Nagarabhavi 2nd Stage Bangalore,12.970541,77.510843
Private hospital,Deepasri Multi Specialities Hospital,No 82 And 83 Surabhi Nagar Jp Nagar 8th Phase Jambhusavari Dinne Bangalore 560076,12.869624,77.582095
Private hospital,Devi Super Speciality Eye Hospital Pvt Ltd,Plot No 185 hubarahalli Villege Ramagondanahalli post Varthur Main Road Whitefield Bangalore,12.955691,77.721656
Private hospital,Devi Super Speciality Eye Hospital Pvt Ltd,Plot No 185 Thubarahalli Villege Ramagondanahalli Post Bangalore 560096,12.955691,77.721656
Private hospital,Dr B R Ambedkar Medical College,Shampura Main Road Kadugondanahalli,13.021717,77.613057
Private hospital,Dr Levine Memorial Hospital Unit II,No 1141 BMS Plaza Mangammanapalya Mian Road Bommanahalli Hosur Road Bengaluru 560068,12.906441,77.630897
Private hospital,Dr Malathi Manipal Hospital,45th Cross 9th Block Jayanaga Opp to Bangalore Central Bangalore 5600069,12.917088,77.591805
Private hospital,E City Hospital,No 47 13 Srinivasa Complex Velankani to Patalamma temple Road Doddathugur Electronic City,12.850296,77.657056
Govt. hospital,ESI Hospital Indiranagar,"7th Main Rd, Appareddipalya, Indiranagar, Bengaluru, Karnataka 560008",12.971185,77.63691
Govt. hospital,ESIMC PGIMSR MODEL HOSPITAL,"620/A/1, 12th Main Rd, 2nd Block, Rajajinagar, Bengaluru, Karnataka 560010",12.991692,77.553901
Private hospital,East Point Hospital,East Point Hospital 113 Bidarahalli Virgonagara Bangalore East 560049,13.053662,77.717912
Private hospital,Ehaa Hospital,No 9 3rd Cross Road Sultanpalya Main Road RT Nagar manorayana Palya Bengaluru Karnataka,13.028777,77.602639
Govt. hospital,Epedimic Disease Hospital,"Indira Nagar I Stage, Hoysala Nagar, Indiranagar, Bengaluru, Karnataka 560038",12.986033,77.644281
Private hospital,Excelcare Hospital A Unit of Excelcare Health Alli,No 3 2 27th Cross Monotype Banashankari 2nd Stage Bangalore 560070,12.920842,77.57363
Private hospital,FORTIS HOSPITALS,Cunningham Road near Sigma Central Mall Vasanth Nagar Bengaluru Karnataka 560052,12.988332,77.594399
Private hospital,Fortis Hospital Bannerghatta,BANNERGHATTA ROAD,12.894823,77.59862
Private hospital,Fortis hospital Rajajinagar,west of chord road opposite to first block rajajinagar junction near rajajinagar metro station,13.002185,77.54905
Covid Care Center (CCC),GKVK Agri,Gandhi Krishi Vignana Kendra Bengaluru Karnataka 560065,13.076668,77.577627
Private hospital,Gangothri Hospital,BTM Layout 1st Phase,12.916328,77.613897
Private hospital,Gayathri Diagnostics And Health Services A Unit of,N126 08th Main JP Nagar 3rd Phase Bangalore 560078,12.978383,77.510142
Private hospital,Gayathri Hospitals Pvt Limited,Magadi Chord Road Vijayanagar Bengaluru 560040,12.974421,77.542679
Private hospital,Geetha Nursing Home,HMT Layout Dinnur Main Road RT Nagar Bangalore 560032,13.02462,77.594418
Govt. hospital,General Hospital Anekal,"Weaver Colony, Anekal, Karnataka 562106",12.709044,77.695574
Govt. hospital,General Hospital Jayanagar,"32nd Cross, 4th B Block, beside Rajiv Gandhi Health Institute, Tilak Nagar, Jayanagar, Bengaluru, Karnataka 560041",12.926238,77.592801
Govt. hospital,General Hospital Kr Puram,"Krishnarajapura, Bengaluru, Karnataka 560036",13.009064,77.69682
Govt. hospital,General Hospital Yelahanka,"Yelahanka, Bengaluru, Karnataka 560064",13.099564,77.596385
Private hospital,Genesis Hospital Unit of American Hospital,No 10 2 Queens Road Bangalore 560052,12.986388,77.597948
Covid Care Center (CCC),Govt Ayur College,Dhanvantari Road Bangalore Bengaluru Karnataka 560010,12.979646,77.573021
Private hospital,Green View Health Care Pvt Ltd,20 and 21 14th Main V Sector HSR layout opp To Agara Lake Bengaluru 560034,12.919129,77.638123
Private hospital,Green View Hospital,No 80 Old no 43 Ejipura Main Road Vivekanagar Bangalore 560047,12.949065,77.62718
Private hospital,Gunasheela Surgical And Maternity Hospital,Dewan N Madhava Rao Road Basavanagudi,12.940387,77.576428
Private hospital,HBS Hospital Trust,No 58 Cockburn road shivajinagar,12.989395,77.603449
Covid Care Center (CCC),Haj Bhavan,Kannuru Bellahalli Karnataka 560064,13.090084,77.636497
Private hospital,Health Nest,1162 23rd Main 24th Cross H S R layout Sector 2 Bengaluru 560102healthnest2010,12.907572,77.648843
Private hospital,Health Plus Multi Speciality Hospital,No 70 Shop No 08 TC Palya Main Road Near St Anthony Church Bangalore 560036,13.021898,77.699395
Private hospital,Healthcare Global Enterprises Ltd,Healthcare Global Enterprises Ltd No44 45 2 2Nd Cross Raja Rammohan Roy Extn Off Lalbagh Double Road Bangalore 560027,12.951276,77.590954
Private hospital,Hemalatha Hospital,No 19 7th Cross Rose Garden Neelasandra 560047,12.954124,77.616627
Covid Care Center (CCC),Horti Boy's Hostel,Nandi Boys Hostel College of Horticulture Vignana Kendra Bengaluru Karnataka 560065,13.091405,77.564879
Covid Care Center (CCC),Horti Girls's Hostel,Mandara Girls Hostel Unnamed Road Vignana Kendra Bengaluru Karnataka 560065,13.093703,77.56455
Private hospital,JMJ Hospital,Nagavara Arabic College P O Bangalore 560045,13.039842,77.623094
Private hospital,Jagriti Maternity Home,282 A 38th Cross 14 Main 4th T Block Jayanagar Bangalore 560041,12.921725,77.587052
Private hospital,Jai Banashankari Nursing Centre,Vasanthappa Building National Park Road Banneraghatta Bangalore 560083,12.800285,77.577047
Private hospital,Jai Maruthi Hospital,No 208 210 Hegganahalli Near Peenya 2nd Stage Vishwaneedam Post Bengaluru 560091,13.006847,77.505529
Private hospital,Jayashree Multispeciality Hospital,No 25 26 and 27 1st cross B Block Vishwapriya Nagar Begur Bangalore,12.881681,77.626158
Private hospital,Jeevika Hospitals Pvt Ltd,95 3 Marathalli Outer ring road Doddanekundi Bangalore,12.965982,77.702576
Private hospital,Jupiter Hospital,28 7th Main 9th Cross Malleshwaram Bangalore 560003,12.999854,77.566353
Govt. hospital,K C General Hospital,"Malleswaram Circle, Police Station Rd, Bengaluru, Karnataka 560003",12.996143,77.569358
Private hospital,KIMS Hospital And Research Center,K R Road V V Puram Bangalore 560004,12.956784,77.573833
Private hospital,Kanaka Maternity Hospital,No 152 Shankar Reddy Building Next to Thirumala theatre Agra HSR Layout Bangalore 560102,12.919772,77.649314
Private hospital,Kanva Sri Hospital,27 Rajivgandhi Nagar Nandini Layout Bengaluru 560096,13.017582,77.539393
Private hospital,Karunalayam Hospital,Carmelaram Post Bangalore 560035,12.910822,77.706889
Private hospital,Kavitha Hospital,95 4th main vijayachandra Kalyana Mantapa road sunkadakatte Bengaluru,12.988652,77.506871
Private hospital,Kenganar Hospita,No 3 2803 Chikkagollarahatti Kachohalli Gate Magadi Main Road Dasanapura Hobli Bangalore 5600,12.99047,77.468475
Private hospital,Kids Clinic India Pvt Ltd Cloudline Hospital,Nagarjuna Sai Signet 2nd Floor Plot No 11 SurveyNo 88 Whitefield Main Road Bangalore 560066,12.933864,77.584226
Private hospital,Kids Clinic India Pvt Ltd Cloudline Hospital,No 1533 9th main Road 3rd Block Jayanagar Bangalore 560011,12.933864,77.584226
Private hospital,Kids Clinic India Pvt Ltd Cloudnine Hospital Horamavu,Horamavu Village K R Puram hobli Bengaluru South Taluk Outer Ring Road Bangalore 560043,13.020062,77.654056
Private hospital,Kids Clinic India Pvt Ltd Cloudnine Hospital Varthur,Bellandur Village Varthur Hobli Bengaluru,12.924329,77.672415
Covid Care Center (CCC),Koramangala,National Games Village Complex Bengaluru Karnataka,12.940804,77.626047
Private hospital,Koshys Hospital,TC Palya Main Road Ramamurthy Nagar Bangalore,13.020742,77.676075
Private hospital,Koya Health Care Pvt ltd,No 81 1 3rd Floor Richmond Road Opp Koshy s Bakery Bangalore 560025,12.965436,77.604799
Private hospital,Kruthika Hospital,Nanjappa Cross Vidyaranyapura Main RoadBangalore560097,13.067732,77.559949
Private hospital,Kshema Hospital,Kodathi Gate Near HP Petrol Bunk Carmelaram Post Bangalore 560035,12.896774,77.719174
Private hospital,Lake View Hospital,No 187 269 186 Ring Road Agara HSR Layout Bangalore 560102,12.923941,77.648189
Private hospital,Lakshmi Nursing Home,No 567 1st Cross Chokkasandra T Dasarahalli Bengaluru 560057,13.041675,77.515306
Private hospital,Lavendar Lotus Multispeciality Hospital Pvt Ltd,No 51 16th Cross Bhuvaneshwari Nagar kempapura Dasarahalli Virupakshapura Bangalore 560024,13.05549,77.605084
Private hospital,Leelavathi Multi Speciality Hospital Pvt Ltd,No 7 and 8 2nd Main Road Chamarajpet Bangalore 560018,12.959543,77.567874
Private hospital,Lenus Hospitals,N126 08th Main JP Nagar 3rd Phase Bangalore 560078,12.914881,77.595107
Govt. hospital,Leprosy Hospital,"4, Magadi Main Rd, Basaveshwar Nagar, 3rd Stage, Basaveshwar Nagar, Bengaluru, Karnataka 560079",12.982119,77.530885
Private hospital,Life Care Hospital,2 24 OM Complex 20th Main Gangothri Circle BTM 1st Stage Bengaluru 560029,12.919389,77.612994
Private hospital,Life line Hospital,Kaggalipura Main Road kaggalipura Bangalore 560082,12.799067,77.507766
Private hospital,Like Wings Hospirtals Pvt Ltd,Kacharakanahalli Bangalore 560043,13.018042,77.628427
Private hospital,Like Wings Hospitals Pvt Ltd,No 50 2954 74 Ward No 89 29 HBR 1st Block Kacharakanahalli Bangalore 560043,13.018042,77.628427
Private hospital,London Care Hospital,Plot no 2572 18th main Kumarswamy Layout 2nd Stage Bangalore 560078,12.900971,77.559784
Private hospital,Lotus Hospital,No 43 Karnataka Layout 1st Stage Kurubarahalli Main Road Bangalore 560086,13.000376,77.534223
Private hospital,M G A Hospital,No 96 Main Road Marathahalli Bengaluru 560037,12.956843,77.700178
Private hospital,M S Ramaiah Hospital,M S Ramaiah Hospital Msr Nagar Msrit Post Bangalore North 560054,13.028255,77.570392
Private hospital,M S Ramaiah Narayana Heart Centre,MSR IT Post MSR Nagar New Bel Road,13.029819,77.563734
Private hospital,M S SHEKHAR HOSPITAL,NO 81 BULL TEMPLE ROAD BANGALORE 19,12.9459,77.567449
Private hospital,MEDSTAR SPECIALITY HOSPITAL,NO 641 17 1 3 KODIGEHALLI MAIN ROAD SAHAKAR NAGAR POST BANGALORE,13.058001,77.585988
Private hospital,MVJ Medical College And Research Hospital,Mvj Medical College And Research Hospital 30Th Km Milestone National Highway 04 Hoskote Dandupalya 562114,13.07732,77.811454
Private hospital,Magnus Health Care Research Pvt Ltd,Dr Honnappa Farm Venkala Buliding Bannerghatta Main Road Gottigere Post Bengaluru 560083,12.934916,77.630508
Private hospital,Mallige Medical Centre Private Limited,31 32 Crescent Road Bangalore,12.985162,77.580385
Private hospital,Malnad Hospital,No 2113637 5th Main Road Pipeline Road Shamanna Nagar Bangalore 560026,12.959959,77.543831
Private hospital,Mamta Hospital,12D Dr Rajgopal Road Next To Food World Rajmahal Vilas 2nd Stage Bengaluru 560094,13.037807,77.574384
Private hospital,Manasa Hospital,SSS Mension Kiadb Ind Area Airport Main Road Opp Maheshwaramma Temple Bagalur Colony Bagalur Blr,13.142821,77.672702
Private hospital,Manasa Hospital,No 107 6th main 2nd cross vijayanagara Bangalore 560040,13.142821,77.672702
Private hospital,Manasa Trinity Heart Hospital,4 38 1ST MAIN ROAD 4TH PHASE OPP EAPL FACTORY NEAR MOTHER DAIRY CIRCLE INDUSTRIAL AREA YELAHANKA,13.099729,77.598065
Private hospital,Manipal Hospitals Whitefield,143 212 2015 KR Puram Hobli Off Hoodi Village EPIP Industrial Area Whitefield Bengaluru,12.988087,77.728459
Private hospital,Manipal Northside Hospital a unit of MHEPL,71 11th Main Opposite Malleshwaram Railway station Malleshwaram,13.00095,77.563855
Private hospital,Manipal hospital,Manipal Hospitals 98 HAL Airport Road Bangalore,12.958391,77.648836
Private hospital,Manjushree hospital,NO 91 DR AMC ROAD KAVALBYRASANDRA R T NAGAR POST BENGALURU 560032,13.021247,77.607093
Private hospital,Maruthi Hospital,Sri Guru Krupa Nilaya Bagaluru Sthnur Main Road Bagaluru Bangalore North 562149,13.132577,77.667213
Private hospital,Mathru Multispeciality Hospital,No 32 2nd cross Manjunatha nagar Raghuvanahalli Kanakapura main road bangalore 560062,12.745628,77.487709
Private hospital,Maya Multispeciality Hospital,PVR Complex No 180 194 opp Govt Primary School Panathur Bangalore 560103,12.936501,77.704853
Private hospital,Medic Star Hospital,No 171 Arunachalam Mudaliar Road Shivajinagar Bangalore560001,12.987664,77.609275
Private hospital,Medihope Hospitals And Research Centre Pvt Ltd,Medihope Hospitals And Research Centre Pvt Ltd No 114 1 Malleshpalya Main Road New Thippasandra Post Bangalore 560075,12.973541,77.675152
Private hospital,Medivision Hospitals,1st Cross Ramanjaneya Layout Ring Road Marathahalli Bangalore 560037,12.958744,77.700778
Private hospital,Medwell Multispeciality Hospital And Diagnostic Ce,1 And 2 Sy no09 and 10 Balaji Layout 1st Main Rayasandra Circle Near Indian Oil Petrol BunkBangalor,12.862283,77.675153
Private hospital,Meenakshi Hospital,50 Feet Main Rd Hanumanthnagar Banashankari Stage I Bengaluru Karnataka 560050,12.942054,77.553603
Private hospital,Meghana Nursing Home,NO 13 9th Main 60feet Road J C Nagar Kurubarahalli Bangalore 560086,13.003525,77.535656
Private hospital,Milann A Unit off BACC Healthcare Pvt Ltd,No 82 CMH Road Indiranagar 2nd Stage Bangalore 560038,12.978788,77.638055
Private hospital,Motherhood Hospital A Unit of Rhea Healthcare Pvt,HRBR Layout bangalore,13.020201,77.651602
Private hospital,Motherhood Hospital A Unit of Rhea Healthcare Pvt,514 1 2 3 Koikondrahalli Villege Sarjapura Road Bangalore 560104,13.020201,77.651602
Private hospital,Motherhood Hospital A Unit of Rhea Healthcare Pvt,324 CMH Road 1st Stage Indiranagar Bangalore 560038,13.020201,77.651602
Private hospital,Motherhood Hospital Indira Nagar Healthcare Pvt,No 323 CMH Road 1st Stage Indiranagar Bangalore 560038,12.978469,77.637512
Private hospital,Mysore Hospital,356 Goraguntepalya Yeshwanthpur Bangalore 560022,13.027526,77.539707
Private hospital,N R Amar Hospital And Research Centre,no32 5th Cross 8th Main Byrasandra Jayanagara 1st Block Bangalore,12.934061,77.592655
Private hospital,NR Hospital,731 Bengaluru Hosur High way Attibele Anekal Taluk Bengaluru562107,12.776713,77.776371
Private hospital,NRV Hospital,28 3 Kadigenahalli BB Road Vidyanagar Cross Bengaluru North Bengaluru 562157,13.163176,77.629323
Private hospital,Nandana Health Care Services India Private Limited,320 C 321 A 1st stage 2nd phase west of chord road manjunathnagar,12.996357,77.546467
Private hospital,Nandini Hospital And Diagnostic Centre,Veera Bhadra Nilaya Ground Floor Rudrappa Layout Near Udupi Garden Hotel Channasandra Main Road,12.983606,77.769231
Private hospital,Nano hospital,79 Sri M Vishweshwara road near arakere sai baba temple BTM 6th stage 2nd block bangalore 56007,12.881042,77.610206
Private hospital,Narayana Hrudayalaya Private Limited,Narayana Hrudayalaya Private Limited 258 A Bommasandra Industrial Area Anekal Taluk Bangalore 560099,12.809497,77.695436
Private hospital,Narayana Medical Center,Hosur Road Bangalore,12.956766,77.605536
Private hospital,Navachethana Hospital A Unit of Pan Asia Hospitals,A Sector opp Rail Wheel Factory Doddaballapura Main Road Yelahanka New town Bangalore 560064,13.103761,77.583731
Private hospital,Navya Super Speciality Hospital,4BM 403 2nd Block BDA HRBR layout Kammanahalli main road behind Titan World Bangalore 560043,13.024258,77.637439
Private hospital,Neha Multispeciality Nursing Home,No 3 4 Chuna Lane Hidayath Nagar KG Halli Bangalore 560045,13.024873,77.619718
Private hospital,Nelivigi Multispeciality Hospital,Vijaya Bank outer Ring Road Bellandur Circle Bangalore 560103,12.923861,77.673693
Private hospital,Nethradhama Hospitals Pvt Ltd,No 77 1st Main Rajkumar Road 2nd Block Rajajinagar 560021,12.997579,77.55093
Private hospital,New Akshay Mallya Hospital,Srinivasa Complex Marathhalli Road Marathhalli Bangalore 560037,12.956811,77.69901
Private hospital,New Janapriya Super Specialty Hospital,319 East Of NGEF Layout Opposite Sbi Bank Kasturinagar,13.005025,77.661487
Private hospital,New varalakshmi hospital,No 2 Mahakavi Kuvempu Road 2nd Stage Rajajinagar Bangalore,12.998727,77.55524
Private hospital,Nu Hospitals Pvt Ltd,Nu Hospitals Pvt Ltd C A 6 15Th Main 11Th Cross Padmanabhanagar Bangalore 560070,12.918017,77.555833
Private hospital,Om Shakthi Hospital,1 And 2 Balaji Homes Anand Nagar 1st Main Kempegowda International Airport Road Bagalur Cross,13.121588,77.612591
Private hospital,Omega Multi Speciality Hospital A Unit of NARCC Mu,No 1236 Ward No 4 B Sector HIG 1 2 Phase Yelahanka New Town Bengaluru 560064,13.100216,77.581406
Private hospital,Ovum Hospitals A Unit Of Neonatal Care And Resear,No 5Ac 916 Outer Ring Road HRBR Layout Bamaswadi Bengaluru 560043,13.020129,77.651693
Private hospital,PAN Nagarbhavi Hospitals Pvt Ltd,611 612 Nagarabhavi Mainroad 2nd Stage Vinayaka Layout Nagarabhavi Bengaluru Karnataka,12.961287,77.511685
Private hospital,PM Santosha Hospital,1344 1 63 3 Himigepura Ward No 193 Behind Bgs Global Hospital Next To Galaxy Apts,12.902994,77.497486
Private hospital,POPULAR MATERNITY CENTRE AND NURSING HOME,NO 27 MASJID STREET YG PALYA BANGALORE 560047,12.962552,77.612375
Private hospital,Patil Hospital,Below Syndicate Bank Sri Thimmappa Complex Old Madras Road Krishnarajapuram Bangalore 560036,13.009064,77.69682
Private hospital,Pavan Hospital,No110 JJ Towers 3rd Main Gandhinagar Yelahanka Old Town Bengaluru 560064,13.098084,77.596165
Private hospital,People Tree Hospitals,Tumkur Road Goraguntepalya Yeshwanthpur,13.028795,77.539465
Private hospital,Phoenix Hospital,No26 1st Main 2nd Cross CC Garden Near Subbhiah Circle Bangalore560027,12.960795,77.591089
Private hospital,Prakriya Hospitals A Unit of C Square Healthcare,Sy No 41 Raja Reddy Layout 8th Mile Tumkur Road Nagasandra Post Bangalore 560073,13.045918,77.506559
Private hospital,Prasad Hospital,1st main road 4th phase industrial area yelahanka new town bangalore 64,13.098359,77.577367
Private hospital,Prashanth Hospital,No 90 d Hosur road Bommanahalli circle,12.906563,77.62872
Private hospital,Prime Health Care Centre,No 2102 New High School Road V V Puram Basavanagudi Bangalore 560004,12.949568,77.574143
Private hospital,Primecare Medical Services Multispecialty Clinic,158 MM Road Frazer Town Bengaluru 560005,13.000575,77.618035
Private hospital,Pristine Hospital And Research Centre Pvt Ltd,Dr MC Modi Hospital Rd K N Extension West of Chord Road Stage 2 Nagapura Bengaluru Karnataka,12.998031,77.543289
Private hospital,Promed Hospital,3781 13th Cross BSK 2nd Stage Bangalore 560070,12.929391,77.563957
Private hospital,Punya Hospitals India pvt Ltd,80feet Road KHB Colony Basaveshwaranagar Bangalore 560079,12.986258,77.537481
Private hospital,R K Hospital,743 645 62 1 Basaveshwara complex Kakolu road rajanukunte Bangalore 560064,13.110593,77.580184
Private hospital,R R Hospital,No 39 3 Shruthi 2nd left Flower Garden Devasandra Main Road K R Puram Post K R Puram Bangalore,13.00818,77.697179
Private hospital,Radhakrishna Multispeciality Hospital Ivf Center,743 645 62 1 Basaveshwara complex Kakolu road rajanukunte Bangalore 560064,12.940881,77.545566
Private hospital,Rafi Life Care Hospital,1 opp K G Halli Police Station Nagarawara Main Road Arabic College Post Bangalore 560045,13.019333,77.618693
Private hospital,Raghavendra Nursing Home,947 16th B Cross New town yelahanka Bangalore 560064,13.096315,77.578737
Private hospital,Rainbow Childrens Medicare Private Limited,Sy No 8 5 Marathalli Kr Puram Outer Ring Road Doddanekundi Marathalli Bengaluru 560037,12.975413,77.69785
Private hospital,Rajajinagar Kidney Care Hospital,A Unit of Bangalore West Urologists Pvt Ltd No06 3rd Cross 1st R BlockRajajinagar Bangalore,13.006637,77.549334
Private hospital,Rajalakshmi Hospital,21 1 LakshmiPura Main Road opp Lakshmipuralake Vidyaranyapura Post Bangalore 560097,13.084253,77.530911
Private hospital,Rajarajeshwari Hospital,Ground Floor Ramanjaneya Building Garudacharpalya Main Road Mahadevapura Bangalore 560048,12.993743,77.701377
Private hospital,Rajarajeswari Medicalcollege And Hospital,Rajarajeswari Medicalcollege And Hospital Kambipura Mysore Road Bangalore 560074,12.896155,77.461852
Private hospital,Rajmahal Vilas Hospital A Unit of Anjan Nursing Home,AECS Layout Sanjaynagar Bengaluru 560094,13.032349,77.576973
Private hospital,Rajshekar Multi Speciality Hospital Pvt Ltd,9th Cross 1st Phase JP Nagar Bengaluru 560078,12.910988,77.579735
Private hospital,Raksha Multispeciality Hospital,No141 142 1st Main Khb Colony Krishnanda Nagarpolice Quarters Nandini Layout,13.019636,77.541958
Private hospital,Ramaiah Harsha Hospital,93 4 Sondekoppa Circle Nelamagnala,13.092729,77.395571
Private hospital,Ramakrishna Hospital Unit III,No 92 1 Konnappana Agrahar Village Begur Hobli Electronics City Post Bengaluru South Taluk 560100,12.854142,77.662469
Private hospital,Rangadore hospital,1st Cross Rd Shankarapura Basavanagudi Bengaluru Karnataka 560004,12.95345,77.571208
Private hospital,Relive Hospital,No 474 330 3 Above Andra Bank Gundappa Circle Bagalur Bangalore 562149,13.121022,77.615798
Private hospital,Rescue Hospital A Unit Of Ratkal Speciality Hospital,No 458 6th Main Road Kengeri Satellite Town Bengaluru 560060,12.921383,77.4818
Private hospital,Royal Bangalore Hospital Sehat Care Health Care,1st Floor Y4 Hights No 7M 235 7th Main HRBR 2nd Block 80 Feet Road Kalyana nagar Banaswadi,13.01458,77.642655
Govt. medical college,SDS TRC RGICD,"Someshwaranagara Dharmaram College Post, 1st Main Rd, near NIMHANS, Bengaluru, Karnataka 560029",12.938365,77.590703
Private hospital,SHIFAA HOSPITAL,NO 332 DARUS SALAM QUEENS ROAD BANGALORE 560052,12.989778,77.598818
Private hospital,SI Vega Hospital Private Limited Regal Hospital,No 30 Cmr Complex Chokkanahalli Hegdenagar Main Road Bangalore 560064,13.083329,77.634961
Private hospital,SPARSH SUPER SPECIALITY HOSPITAL,NO 4 1 TUMKUR ROAD YESHWANTHPUR,13.027714,77.542931
Private hospital,SSG Hospital,No171 2nd Main Kempegowda Nagara Behind Petrol Bunk Magadi Road Bengaluru 560091,12.986786,77.479438
Private hospital,SSNMC Super Specialty Hospital,No 8 Ideal Homes HBCS Layout Rajarajeshwari Nagar Bangalore South 560098,12.932503,77.515626
Private hospital,ST MARTHAS Hospital,Nrupathunga Rd Ambedkar Veedhi Bengaluru Karnataka 560001,12.971254,77.586665
Private hospital,ST THERESAS HOSPITAL,DR RAJKUMAR ROAD RAJAJINAGAR,13.006057,77.553737
Private hospital,Sagar Hospitals,Sagar Hospitals Shavige Malleshwara Hills Kumarswamy Layout Banashankari Bangalore South 560078,12.907952,77.565118
Private hospital,Sagar hospital Jayanagar,44 54 30th Cross Rd Bannerughatta Approach Road Layout 4th T Block East Tilak Nagar Jayanagar Blr,12.928167,77.599545
Private hospital,Sahasra Hospitals A Unit of JBS Nursing Home,N27B New no30 39th Cross 8th Block Jayanagar Bangalore560082,12.92025,77.574861
Private hospital,Sai Ambica Hospital,32 30th Cross Road Thilak Nagar Jayanagara Bangalore560041,12.928349,77.593877
Private hospital,Sai Hospital,N126 08th Main JP Nagar 3rd Phase Bangalore 560078,12.914881,77.595107
Private hospital,Saibaba Hospital,No12 Leggere Main Road Leggere Bengaluru 560058,13.009094,77.521909
Private hospital,Sakhii Hospitals A Unit of Prasad Health Care Serv,123 7th Cros Dllars Colony Billekahalli BTM 2nd Stage Opp BGRoad Bangalore560076,12.905365,77.603144
Private hospital,Sakra Hospital,SY NO 52 2 52 3 Devarabeesanahalli Varthur Hobli Opp Intel Outer Ring Rd Marathahalli Bengaluru,12.932327,77.685189
Private hospital,Sanjeevini Hospital,No 760 7th Main Last Bus Stop Mahalaxmi Layout,13.011608,77.543766
Private hospital,Sankeerthana Hospital Pvt Ltd,153 1st Cross Koramanagala 1st Block Beside Bandhana Bank Bangalore560034,12.925477,77.635986
Private hospital,Santosh Hospital,Promenade Road Bengaluru North,12.995823,77.608319
Private hospital,Sapthagiri Super Speciality Hospital,Sapthagiri Super Speciality Hospital No 15 Chikkasandra Hesargatta Road Bangalore 560090,13.070639,77.502479
Private hospital,Saralaya Hospitals pvt Ltd,1B Saralaya Layout Shree Krishna Gardens Kottigenahalli Yelahanka Post Bangalore 560064,13.121732,77.629435
Private hospital,Sathya Sai Orthopadic and Multispeciality Hospital,20 2 Battarahalli Old RTO office road Old Madras road Bangalore,13.021699,77.71288
Private hospital,Sevakshetra Hospital,27th Cross Banashankari 2nd Stage Bengaluru,12.921385,77.572476
Private hospital,Shanbhag Hospital Unit of Ananya Hospital Pvt Ltd,No 6 Thimmaiah Layout 1st Main III D Cross III Stage II Block Basaveshwaranagar Bengaluru,12.98572,77.543514
Private hospital,Shankar Nursing Home,No01 sy no 05 2nd Stage 17th Cross Gayathri Layout Basavanapura Main Road K R Puram Bangalore,13.010359,77.706449
Private hospital,Shankar Supre Speciality Hospital,Ganigarapalya Grama Vajarahalli Bangalore 560062,12.875447,77.537931
Private hospital,Shantha Multi Speciality Hospital,Venkateshwara Complex BEL Layout 1st Stage Magadi Main Road Bangalore 560091,12.978914,77.486992
Private hospital,Shishuka Childrens Hospital,5AC938 Ring Road Service Road Kalyan Naga HRBR Layout Bengaluru560043,13.01942,77.653529
Private hospital,Shivaganga Nursing Home,1232 Tumkur road madanayakanahalli Bangalore562123,13.02879,77.540317
Private hospital,Shobha Hospital,No 2930 Shobha Hospital Nagarabhavi Main Road Vijayanagar Bengaluru 560040,12.975552,77.531331
Private hospital,Shradha Nursing Home,Shiva Theatre 8th Block Koramangala Bangalore 560095,12.942859,77.617424
Private hospital,Shree Hari Hospital,Sri Nan jundeshwara Commercial Complex Siddanavasahalli Madanayakanahalli Pos Bangalore,13.061948,77.483617
Private hospital,Shree Maternity Home,2nd Main Road Defence Colony Hesarghatta Road Bengaluru 560073,13.057234,77.507047
Private hospital,Shree Sai Speciality Hospital,Amarjyothi Layout Inner Ring Road Near EGL Domlur Extension Bangalore 560071,12.955539,77.641834
Private hospital,Shushrusha Hospital Yelahanka,421 357 B B ROAD YELAHANKA OLD TOWN BANGALORE 560064,13.099729,77.598065
Private hospital,Siddalingappa Memorial Hospital,1st Floor SM Hospital Konanakunte Cross 560062,12.890181,77.563896
Private hospital,Sidvin Hospital Pvt Ltd,20th Main Road 5th Block Rajajinagar Bangalore 560010,12.982398,77.549375
Govt. hospital,Sir C V Raman General Hopsital Indiranagar,"68/1, 4th B Cross Rd, Kalyan Nagar, Michael Palaya, H Colony, Indiranagar, Bengaluru, Karnataka 560038",12.982915,77.645004
Private hospital,Sita Bhateja Speciality Hospital,8 and 9 O shaughnessy Road Langford garden Bangalore 560025,12.963229,77.599743
Private hospital,Spandana Health Care,29th Main 5th Block Nandini Layout Bengaluru 560096,13.009996,77.529226
Private hospital,Sparsh Hospital For Advanced Surgeries,146 Infantry Road Bangalore,12.983287,77.594752
Private hospital,Specialist Health System Pvt Limited,Specialist Health System Pvt Limited No 216 7 Th Main 80 Ft Road 1 St Block Hrbr Layout Kalayanagar Bangalore 560043,13.016002,77.643059
Private hospital,Sree Balaji Hospital and diagnostic,MES main road muttyalamma nagar bengaluru,13.041396,77.553823
Private hospital,Sree Lakshmi Hospital,Nagappa Reddy Layout Kaggadasapura C V Ramannagar Post Bengaluru 560093,12.982559,77.68137
Private hospital,Sree Lakshmi Multi Speciality Hospital,Hogasandra Bus Stop Begur Main Road Bengaluru 560068,12.895263,77.626138
Private hospital,Sree sai prasad multispeciality Hospital,Near Mother Dairy cross yelahanka new town Bangalore 560064,13.098359,77.577367
Private hospital,Sreenivasa hospital,12 PARK ROAD Near CHICKLALBAGH BANGALORE 560053,12.973143,77.57255
Private hospital,Sri Arogya Hospital,No1 And 2 Kuvempu Nagar 2nd Cross Kattigenahalli Bagalur Main Road Bangalore,12.911989,77.602253
Private hospital,Sri Arogya Hospital Rammurthy nagar,76 93 Kalkere Main Road Opposite More Super Market Kodenahalli Ramamurthy Nagar Bangalore 560016,13.019583,77.678137
Private hospital,Sri Ashwini Hospital,Jakkur Main Road Yelahanka Old Town Opposite B.D.K. Kalyana Mandapa Nehru Nagar Bengaluru Karnataka 560064,13.098829,77.597961
Private hospital,Sri Lakshmi Multi Specialty Hospital,Srigandhand Kaval Sunkadakatte Vishwaneedam post Magadi main Road Bengaluru,12.988074,77.508677
Private hospital,Sri Lakshmi Super Speciality Hospital,3rd Main Road old Extension Road KR Pura Bangalore 560036,13.011095,77.697355
Private hospital,Sri Raghava Childrens And General Hospital,Opp Syndicate Bank Sarjapura Main Road tilaknagar Attibela Circle Anekal taluk Bangalore 562107,12.780392,77.770752
Private hospital,Sri Rama Hospital Multi Speciality And Trauma,Sai Nandi Complex Near Sunkadakatte Bus Stop Bangalore 560091,12.993597,77.494731
Private hospital,Sri Sai Hospital,18th Cross 14th Main 5th Block 1st Stage HBR Layout Nagawara Bus Stop Behind Ganesha Temple,13.037031,77.623885
Private hospital,Sri Sai Hospitals,Sri Raghavendraswamy Layout Yadavanahalli Attibele Hobli Anekal taluk Bangalore 562107,12.787694,77.741875
Private hospital,Sri Sai Northside Hospital,60 Feet Road Sahakara Nagara Bangalore 560092,13.059218,77.581777
Private hospital,Sri Sai Ram Hospital,JC Industrial Area Yelachenahalli Near Metro Cash And Carry Kanakapura Road Bangalore560062,12.89427,77.568283
Private hospital,Sri Shivakrupa Hospital,Nagarahole Main Road Mahadeshwaranagar Magadi main road Bangalore560 091,12.995679,77.495711
Private hospital,Sri Sri College of Ayurvedic Science and Research,B M Kaval Udayapura Kanakapura Rd Bengalore Karnataka 560082,12.828955,77.51782
Private hospital,Sri Venkateshwara Hospital,Hosur Main road Madiwala Bangalore 560048,12.926415,77.616654
Private hospital,Sri Vinayaka Multispeciality Hospital And Trauma C,Mylanahalli B K Halli Post Jala Hobli Bangalore 562149,13.17917,77.692903
Private hospital,Srinivasa Hospital,Andrahalli Main Road Peenya 2nd Stage Beside Anupama School Rameshwar Nagar Bangalore 560091,13.010366,77.494649
Private hospital,Srinivasa Nursing Home,Lakshmi Complex Peenya 3rd phase Bangalore 560058,13.022781,77.518246
Private hospital,Srinivasam Cancer Care Multi Speciality Hospital,No 36 1st A Main 5th Cross Maruthi Nagar Nagarbhavi Main Road Bangalore 560072,12.961515,77.52317
Private hospital,St Johns Medical College Hospital,Sarjapur Road John Nagar Koramangala,12.929452,77.618662
Private hospital,St Philomenas Hospital,No 4 Campbell Road Xavier Layout Viveknagar Bangalore 560047,12.965306,77.611023
Private hospital,Suguna Hospital Bangalore,No 87 Dr Rajkumar Road 4th N Block Rajajinagar,12.988104,77.559947
Private hospital,Sumathi Hospital,1st Main 60feet Road Pattegarpalya Srinivasa Nagar Bengaluru 560072,12.976374,77.52444
Private hospital,Sun Orthopaedic Hospital,24 Brindavan Nagar 80 feet Main Road Mathikere Bangalore560054,13.033368,77.554912
Private hospital,Supriya Hospital,7th Cross Prakash nagar Bangalore 560021,12.992752,77.558718
Private hospital,Supurva Hospitals Private Limited,No 1 Vasanthapura Main Road Bangalore 560061,12.891346,77.561273
Private hospital,Swasthik Hospital,No.76 circle 1 Sarjapur Main Rd Dommasandra Bengaluru Karnataka 562125,12.882181,77.746666
Private hospital,Syamala Hospital,Cambridge Road Ulsoor Bangalore 560008,12.971507,77.62751
Private hospital,TR Hospital,Kothanur Dinne Main Road JP Nagar 8th Phase Bengaluru 560078,12.880689,77.584266
Private hospital,TRUSTWELL HOSPITALS PRIVATE LIMITED,5 chandrika trade centre J C road,12.960562,77.583953
Govt. hospital,Taluk Hospital Devanahalli,"SH 96, Devanahalli, Binnamangala, Karnataka 562110",13.256857,77.72746
Govt. hospital,Taluk Hospital Hosakote,"Hoskete, Bangalore Rural NH-4, Bangalore, Road, Hoskote, Karnataka 562114",13.077038,77.801201
Govt. hospital,Taluk Hospital Nelamangala,"Jayanagara, Indiranagara, Karnataka 562123",13.098735,77.391211
Govt. hospital,Taluka Heath Center Doddaballapura,"Doddaballapura, Karnataka 561203",13.292394,77.539427
Private hospital,Tejas Hospital,9th Main 13th Cross Sector 6 HSR Layout Bangalore 560102,12.914561,77.635422
Private hospital,The Heart Center,5/13 5/13 Miller Tank Bund Rd Kaverappa Layout Vasanth Nagar Bengaluru Karnataka 560051,12.990064,77.594608
Private hospital,The Oxford Medical College Hospital and Research center,Yadavanahalli NH 7 Hosur main road Attibele Anekal TalukBengaluru Rural,12.787363,77.757613
Private hospital,The Pulse Multispeciality Hospital,5 9 5 8 1 20th Main Road 50 Feet Rd Muneshwara Block Banashankari Bengaluru Karnataka 560085,12.942468,77.547361
Govt. hospital,Trauma And Emergency Care Centre,"New Tharagupet, Bengaluru, Karnataka 560002",12.962563,77.573556
Private hospital,U K HOSPITAL,Akshaya Nagar Attur Village Yelahanka Bangalore,13.104023,77.565421
Private hospital,Udhbhava Hospital,100 Feet Ring Road BSK3rd Stage Bengaluru 560085,12.925827,77.548587
Private hospital,Uma Nursing Home,Mangammanapalya Main Road Bommanahalli Bengaluru 560068,12.90636,77.630321
Private hospital,Unity Lifeline Hospital India Pvt Ltd,Ekadanta 80 Feet Road 2nd Block 2nd Stage Nagarabhavi Bangalore 560072,12.981901,77.510897
Private hospital,VIJAYASHREE HOSPITALS,187 2 VINAYAKA CIRCLE JIGANI ANEKAL TQ BANGALORE,12.778876,77.644324
Private hospital,VISHAL MULTI SPECIALITY HEALTH CAARE CENTRE,19153 G P COMPLEX 1st CROSS ANANDPURA CIRCLE T C PALYA K R PURAM BANGALORE,13.024629,77.692694
Private hospital,Varthur Silicon City Hospital Pvt Ltd LLP,opp darmarayaswamy temple road varthur Bangalore 560087,12.955905,77.724743
Private hospital,Vasavi Hospital,15 1st Stage Opp to 15E Bus Stop 70th Cross Rd Kumaraswamy Layout Bengaluru Karnataka 560078,12.903175,77.560374
Private hospital,Vedamrutha Hospital,Near Dairy Bus Stop Hegganahalli Main Road Peenya 2nd Stage Bangalor560021,13.009291,77.505893
Private hospital,Venkatagiri Nursing Home,Byrasandra Main Road 1st Block East Jayanagar Bengaluru 560011,12.934683,77.58725
Govt. medical college,Victoria Hospital,"Fort Rd, near City Market, New Tharagupet, Bengaluru, Karnataka 560002",12.963567,77.573807
Private hospital,Vijayanagar Hospital,17th Cross M C Road Near Vijayanagar Metro Station Vijayanagar Bangalore 560040,12.970916,77.537401
Private hospital,Vikram Hospital Bengaluru Private Limited,Millers Road Opp St Annes College Bengaluru 560 052,12.988192,77.592169
Private hospital,Vimalalaya Hospital a Unit of Vimalalaya hospital,Huskur Gate Hosur Road Post Electronic City Bengaluru Karnataka 560100,12.834953,77.680367
Private hospital,Vinayaka Hospital,No13 29 Prathik Complex Opp Banashankari Tent Hongasandra Begur Main Road Bengaluru 560068,12.891925,77.625808
Private hospital,Vydehi Hospital,Vydehi Hospital 82 Epip Area Whitefield Bangalore 560066,12.975677,77.729413
Private hospital,Yashomati Hospitals,2371 3 HAL Airport varthur road munne kolala Marathalli,12.955723,77.711277
Private hospital,cytecare Hospital Pvt Ltd,No 3 1A4 Venkatala Near Bagalur Cross Yelahanka Hobli Bengaluru 560064,13.118335,77.608388
